{"type": "FeatureCollection", "features": [ {"type": "Feature", "properties": {"norad_id": 30941, "name": "FENGYUN 1C DEB", "group": "fengyun-1c-debris", "lat": -24.593688043094605, "lon": -160.5122117303593, "alt_km": 769.2622989158463, "timestamp": "2025-12-04T13:52:00.722324+00:00", "meta": {"OBJECT_NAME": "FENGYUN 1C DEB", "OBJECT_ID": "1999-025BAF", "EPOCH": "2025-12-01T13:49:03.246528", "MEAN_MOTION": 14.30862739, "ECCENTRICITY": 0.00349916, "INCLINATION": 98.5501, "RA_OF_ASC_NODE": 192.5869, "ARG_OF_PERICENTER": 348.4723, "MEAN_ANOMALY": 11.5655, "EPHEMERIS_TYPE": 0, "CLASSIFICATION_TYPE": "U", "NORAD_CAT_ID": 30941, "ELEMENT_SET_NO": 999, "REV_AT_EPOCH": 96466, "BSTAR": 0.0018784871, "MEAN_MOTION_DOT": 4.921e-05, "MEAN_MOTION_DDOT": 0}, "tle": {"line1": "1 30941U 99025BAF 25335.57573202  .00004921  00000+0  18785-2 0  9997", "line2": "2 30941  98.5501 192.5869 0034991 348.4723  11.5655 14.30862739964661"}}, "geometry": {"type": "Point", "coordinates": [-160.5122117303593, -24.593688043094605]}}, {"type": "Feature", "properties": {"norad_id": 30942, "name": "FENGYUN 1C DEB", "group": "fengyun-1c-debris", "lat": 79.67685160604657, "lon": -145.96372762476722, "alt_km": 752.4714604217397, "timestamp": "2025-12-04T13:52:00.722335+00:00", "meta": {"OBJECT_NAME": "FENGYUN 1C DEB", "OBJECT_ID": "1999-025BAG", "EPOCH": "2025-12-03T17:51:47.501856", "MEAN_MOTION": 14.1482492, "ECCENTRICITY": 0.01377953, "INCLINATION": 98.6795, "RA_OF_ASC_NODE": 336.2314, "ARG_OF_PERICENTER": 131.8654, "MEAN_ANOMALY": 41.7268, "EPHEMERIS_TYPE": 0, "CLASSIFICATION_TYPE": "U", "NORAD_CAT_ID": 30942, "ELEMENT_SET_NO": 999, "REV_AT_EPOCH": 96517, "BSTAR": 0.00028451426, "MEAN_MOTION_DOT": 5.6e-06, "MEAN_MOTION_DDOT": 0}, "tle": {"line1": "1 30942U 99025BAG 25337.74429979  .00000560  00000+0  28451-3 0  9997", "line2": "2 30942  98.6795 336.2314 0137795 131.8654  41.7268 14.14824920965177"}}, "geometry": {"type": "Point", "coordinates": [-145.96372762476722, 79.67685160604657]}}, {"type": "Feature", "properties": {"norad_id": 30943, "name": "FENGYUN 1C DEB", "group": "fengyun-1c-debris", "lat": 17.438541161207862, "lon": -10.035409626144515, "alt_km": 866.0320814193037, "timestamp": "2025-12-04T13:52:00.722345+00:00", "meta": {"OBJECT_NAME": "FENGYUN 1C DEB", "OBJECT_ID": "1999-025BAH", "EPOCH": "2025-12-04T00:06:18.307584", "MEAN_MOTION": 14.04476353, "ECCENTRICITY": 0.005111, "INCLINATION": 98.7974, "RA_OF_ASC_NODE": 352.1973, "ARG_OF_PERICENTER": 89.6566, "MEAN_ANOMALY": 271.0458, "EPHEMERIS_TYPE": 0, "CLASSIFICATION_TYPE": "U", "NORAD_CAT_ID": 30943, "ELEMENT_SET_NO": 999, "REV_AT_EPOCH": 95619, "BSTAR": 0.00029984188, "MEAN_MOTION_DOT": 4.42e-06, "MEAN_MOTION_DDOT": 0}, "tle": {"line1": "1 30943U 99025BAH 25338.00437856  .00000442  00000+0  29984-3 0  9992", "line2": "2 30943  98.7974 352.1973 0051110  89.6566 271.0458 14.04476353956197"}}, "geometry": {"type": "Point", "coordinates": [-10.035409626144515, 17.438541161207862]}}, {"type": "Feature", "properties": {"norad_id": 30944, "name": "FENGYUN 1C DEB", "group": "fengyun-1c-debris", "lat": -53.56713686134183, "lon": -158.35595578476324, "alt_km": 758.2565598257661, "timestamp": "2025-12-04T13:52:00.722355+00:00", "meta": {"OBJECT_NAME": "FENGYUN 1C DEB", "OBJECT_ID": "1999-025BAJ", "EPOCH": "2025-12-03T10:25:10.473600", "MEAN_MOTION": 14.52419453, "ECCENTRICITY": 0.01492276, "INCLINATION": 98.8519, "RA_OF_ASC_NODE": 32.6261, "ARG_OF_PERICENTER": 128.6265, "MEAN_ANOMALY": 247.8996, "EPHEMERIS_TYPE": 0, "CLASSIFICATION_TYPE": "U", "NORAD_CAT_ID": 30944, "ELEMENT_SET_NO": 999, "REV_AT_EPOCH": 98941, "BSTAR": 0.00025340417, "MEAN_MOTION_DOT": 1.138e-05, "MEAN_MOTION_DDOT": 0}, "tle": {"line1": "1 30944U 99025BAJ 25337.43414900  .00001138  00000+0  25340-3 0  9999", "line2": "2 30944  98.8519  32.6261 0149227 128.6265 247.8996 14.52419453989411"}}, "geometry": {"type": "Point", "coordinates": [-158.35595578476324, -53.56713686134183]}}, {"type": "Feature", "properties": {"norad_id": 30945, "name": "FENGYUN 1C DEB", "group": "fengyun-1c-debris", "lat": -66.51189162532897, "lon": 8.9931299386354, "alt_km": 814.4890161093344, "timestamp": "2025-12-04T13:52:00.722365+00:00", "meta": {"OBJECT_NAME": "FENGYUN 1C DEB", "OBJECT_ID": "1999-025BAK", "EPOCH": "2025-12-02T00:17:47.503104", "MEAN_MOTION": 14.29563665, "ECCENTRICITY": 0.00310477, "INCLINATION": 99.3898, "RA_OF_ASC_NODE": 343.8484, "ARG_OF_PERICENTER": 68.7641, "MEAN_ANOMALY": 347.6072, "EPHEMERIS_TYPE": 0, "CLASSIFICATION_TYPE": "U", "NORAD_CAT_ID": 30945, "ELEMENT_SET_NO": 999, "REV_AT_EPOCH": 96284, "BSTAR": 0.0019395565, "MEAN_MOTION_DOT": 4.94e-05, "MEAN_MOTION_DDOT": 0}, "tle": {"line1": "1 30945U 99025BAK 25336.01235536  .00004940  00000+0  19396-2 0  9996", "line2": "2 30945  99.3898 343.8484 0031047  68.7641 347.6072 14.29563665962845"}}, "geometry": {"type": "Point", "coordinates": [8.9931299386354, -66.51189162532897]}}, {"type": "Feature", "properties": {"norad_id": 30946, "name": "FENGYUN 1C DEB", "group": "fengyun-1c-debris", "lat": 63.74285167581338, "lon": 74.37395005461755, "alt_km": 781.5753485942614, "timestamp": "2025-12-04T13:52:00.722375+00:00", "meta": {"OBJECT_NAME": "FENGYUN 1C DEB", "OBJECT_ID": "1999-025BAL", "EPOCH": "2025-12-04T07:13:49.481760", "MEAN_MOTION": 14.48061123, "ECCENTRICITY": 0.0089177, "INCLINATION": 99.0397, "RA_OF_ASC_NODE": 92.906, "ARG_OF_PERICENTER": 218.0934, "MEAN_ANOMALY": 207.0045, "EPHEMERIS_TYPE": 0, "CLASSIFICATION_TYPE": "U", "NORAD_CAT_ID": 30946, "ELEMENT_SET_NO": 999, "REV_AT_EPOCH": 98229, "BSTAR": 0.0019750848, "MEAN_MOTION_DOT": 7.675e-05, "MEAN_MOTION_DDOT": 0}, "tle": {"line1": "1 30946U 99025BAL 25338.30126715  .00007675  00000+0  19751-2 0  9992", "line2": "2 30946  99.0397  92.9060 0089177 218.0934 207.0045 14.48061123982294"}}, "geometry": {"type": "Point", "coordinates": [74.37395005461755, 63.74285167581338]}}, {"type": "Feature", "properties": {"norad_id": 30947, "name": "FENGYUN 1C DEB", "group": "fengyun-1c-debris", "lat": 73.17226095003517, "lon": -162.83878286481632, "alt_km": 823.6174853493467, "timestamp": "2025-12-04T13:52:00.722386+00:00", "meta": {"OBJECT_NAME": "FENGYUN 1C DEB", "OBJECT_ID": "1999-025BAM", "EPOCH": "2025-12-01T03:41:10.986432", "MEAN_MOTION": 14.3800177, "ECCENTRICITY": 0.00958788, "INCLINATION": 98.8087, "RA_OF_ASC_NODE": 224.4953, "ARG_OF_PERICENTER": 282.3771, "MEAN_ANOMALY": 76.6697, "EPHEMERIS_TYPE": 0, "CLASSIFICATION_TYPE": "U", "NORAD_CAT_ID": 30947, "ELEMENT_SET_NO": 999, "REV_AT_EPOCH": 98326, "BSTAR": 0.00036480125, "MEAN_MOTION_DOT": 1.114e-05, "MEAN_MOTION_DDOT": 0}, "tle": {"line1": "1 30947U 99025BAM 25335.15359938  .00001114  00000+0  36480-3 0  9999", "line2": "2 30947  98.8087 224.4953 0095878 282.3771  76.6697 14.38001770983261"}}, "geometry": {"type": "Point", "coordinates": [-162.83878286481632, 73.17226095003517]}}, {"type": "Feature", "properties": {"norad_id": 30949, "name": "FENGYUN 1C DEB", "group": "fengyun-1c-debris", "lat": -12.563962804019763, "lon": -24.89945837460464, "alt_km": 768.1281312785604, "timestamp": "2025-12-04T13:52:00.722396+00:00", "meta": {"OBJECT_NAME": "FENGYUN 1C DEB", "OBJECT_ID": "1999-025BAP", "EPOCH": "2025-12-04T05:44:24.281952", "MEAN_MOTION": 14.14033885, "ECCENTRICITY": 0.0116771, "INCLINATION": 98.698, "RA_OF_ASC_NODE": 332.8158, "ARG_OF_PERICENTER": 334.205, "MEAN_ANOMALY": 90.1081, "EPHEMERIS_TYPE": 0, "CLASSIFICATION_TYPE": "U", "NORAD_CAT_ID": 30949, "ELEMENT_SET_NO": 999, "REV_AT_EPOCH": 96396, "BSTAR": 0.00044909318, "MEAN_MOTION_DOT": 8.68e-06, "MEAN_MOTION_DDOT": 0}, "tle": {"line1": "1 30949U 99025BAP 25338.23916993  .00000868  00000+0  44909-3 0  9993", "line2": "2 30949  98.6980 332.8158 0116771 334.2050  90.1081 14.14033885963966"}}, "geometry": {"type": "Point", "coordinates": [-24.89945837460464, -12.563962804019763]}}, {"type": "Feature", "properties": {"norad_id": 30954, "name": "FENGYUN 1C DEB", "group": "fengyun-1c-debris", "lat": 5.512415449381351, "lon": 78.03378822526254, "alt_km": 929.0294421049894, "timestamp": "2025-12-04T13:52:00.722406+00:00", "meta": {"OBJECT_NAME": "FENGYUN 1C DEB", "OBJECT_ID": "1999-025BAU", "EPOCH": "2025-12-03T12:27:02.178144", "MEAN_MOTION": 14.14849679, "ECCENTRICITY": 0.01284781, "INCLINATION": 98.7142, "RA_OF_ASC_NODE": 77.8477, "ARG_OF_PERICENTER": 213.4285, "MEAN_ANOMALY": 160.6222, "EPHEMERIS_TYPE": 0, "CLASSIFICATION_TYPE": "U", "NORAD_CAT_ID": 30954, "ELEMENT_SET_NO": 999, "REV_AT_EPOCH": 96257, "BSTAR": 0.0020209573, "MEAN_MOTION_DOT": 4.182e-05, "MEAN_MOTION_DDOT": 0}, "tle": {"line1": "1 30954U 99025BAU 25337.51877521  .00004182  00000+0  20210-2 0  9993", "line2": "2 30954  98.7142  77.8477 0128478 213.4285 160.6222 14.14849679962570"}}, "geometry": {"type": "Point", "coordinates": [78.03378822526254, 5.512415449381351]}}, {"type": "Feature", "properties": {"norad_id": 30956, "name": "FENGYUN 1C DEB", "group": "fengyun-1c-debris", "lat": 22.354818200334723, "lon": 9.117558494496002, "alt_km": 810.4055830694751, "timestamp": "2025-12-04T13:52:00.722416+00:00", "meta": {"OBJECT_NAME": "FENGYUN 1C DEB", "OBJECT_ID": "1999-025BAW", "EPOCH": "2025-12-04T02:08:07.736352", "MEAN_MOTION": 14.14161474, "ECCENTRICITY": 0.00495232, "INCLINATION": 98.7608, "RA_OF_ASC_NODE": 12.2743, "ARG_OF_PERICENTER": 7.9242, "MEAN_ANOMALY": 47.5351, "EPHEMERIS_TYPE": 0, "CLASSIFICATION_TYPE": "U", "NORAD_CAT_ID": 30956, "ELEMENT_SET_NO": 999, "REV_AT_EPOCH": 96185, "BSTAR": 0.0014588171, "MEAN_MOTION_DOT": 2.77e-05, "MEAN_MOTION_DDOT": 0}, "tle": {"line1": "1 30956U 99025BAW 25338.08897843  .00002770  00000+0  14588-2 0  9999", "line2": "2 30956  98.7608  12.2743 0049523   7.9242  47.5351 14.14161474961856"}}, "geometry": {"type": "Point", "coordinates": [9.117558494496002, 22.354818200334723]}}]}